{"type":"Feature","properties":{"GID_1":"SGP.1_1","GID_0":"SGP","country":"Singapore","province":"Central","VARNAME_1":"NA","NL_NAME_1":"NA","TYPE_1":"Region","ENGTYPE_1":"Region","CC_1":"NA","HASC_1":"NA","ISO_1":"NA","name":"Central.province"},
"geometry":{"type": "MultiPolygon","coordinates": [[[[103.8478,1.2222,0.0],[103.8452,1.2235,7.8448],[103.8432,1.2216,7.5254],[103.8504,1.2141,4.0841],[103.8517,1.2203,0.0],[103.8489,1.2231,0.0],[103.8478,1.2222,0.0]]],
[[[103.8604,1.2243,0.0],[103.8589,1.2261,0.0],[103.8569,1.225,0.0],[103.8622,1.2218,0.0],[103.862,1.224,0.0],[103.8604,1.2243,0.0]]],
[[[103.8516,1.2303,6.3165],[103.8457,1.2321,0.0],[103.8492,1.2294,3.8402],[103.8468,1.2268,0.0],[103.8494,1.2286,1.5593],[103.8516,1.2267,4.7383],[103.8528,1.2217,0.0],[103.8568,1.2179,2.2022],[103.8582,1.2217,0.0],[103.8556,1.2259,0.0],[103.8533,1.2266,2.6835],[103.8538,1.2291,4.8244],[103.8577,1.2298,0.0],[103.858,1.2323,0.0],[103.8516,1.2303,6.3165]]],
[[[103.8365,1.2318,0.0],[103.8394,1.2285,0.0],[103.8397,1.2287,0.0],[103.8374,1.2325,0.0],[103.8365,1.2318,0.0]]],
[[[103.8339,1.2128,2.0985],[103.8361,1.2141,7.3193],[103.8358,1.2156,0.0],[103.8344,1.2155,0.0],[103.8339,1.2128,2.0985]]],
[[[103.8319,1.2156,5.1906],[103.8333,1.215,3.3867],[103.8336,1.2169,0.0],[103.8322,1.2169,5.1906],[103.8319,1.2156,5.1906]]],
[[[103.8108,1.2592,11.3781],[103.8069,1.2589,10.5555],[103.8225,1.2478,9.3409],[103.825,1.2433,0.0],[103.8328,1.2372,1.7437],[103.8429,1.2431,0.0],[103.8484,1.2519,0.0],[103.8464,1.2532,2.9253],[103.8419,1.2522,0.8535],[103.842,1.2537,0.8535],[103.8381,1.2544,0.6563],[103.8367,1.2532,7.0828],[103.8275,1.2542,2.6024],[103.8183,1.2589,3.8658],[103.8108,1.2592,11.3781]]],
[[[103.8406,1.2606,0.0],[103.8367,1.2644,0.0],[103.8311,1.2644,0.0],[103.825,1.26,3.9405],[103.8269,1.2567,0.0],[103.8364,1.2544,0.7923],[103.8425,1.2572,3.7427],[103.8406,1.2606,0.0]]],
[[[103.8114,1.2626,1.6135],[103.8131,1.2625,0.0],[103.8136,1.2633,0.0],[103.8117,1.2647,1.7754],[103.8114,1.2626,1.6135]]],
[[[103.8972,1.3368,9.3724],[103.8962,1.3378,9.5119],[103.8889,1.3336,4.3345],[103.8851,1.3409,12.8379],[103.8773,1.3443,12.9518],[103.8696,1.3427,25.5561],[103.8651,1.3443,11.1019],[103.8604,1.3434,8.0449],[103.8569,1.3555,20.7435],[103.8519,1.3607,16.8213],[103.8476,1.3636,19.5541],[103.83,1.3679,16.7799],[103.8283,1.368,18.4208],[103.8271,1.3627,31.4931],[103.8251,1.3635,33.5785],[103.8243,1.3618,34.5911],[103.8207,1.3612,32.5474],[103.8185,1.3549,66.5373],[103.8235,1.3523,62.5894],[103.8267,1.3542,28.8428],[103.8338,1.3496,26.8734],[103.8368,1.3464,26.3061],[103.8371,1.3435,21.7717],[103.8339,1.3406,16.0875],[103.8232,1.3407,40.4955],[103.8201,1.3392,29.4623],[103.8186,1.3358,34.4632],[103.8099,1.3417,35.378],[103.8042,1.3414,28.4325],[103.7951,1.3493,53.4453],[103.7894,1.348,39.9061],[103.7877,1.3494,44.5336],[103.7862,1.3486,55.0616],[103.7883,1.3457,40.8725],[103.7874,1.3447,40.7861],[103.7778,1.3419,30.9023],[103.7704,1.349,35.5423],[103.7632,1.3467,43.6891],[103.7671,1.3428,43.6444],[103.7651,1.3421,48.3089],[103.7642,1.3392,41.5825],[103.7656,1.3358,33.8366],[103.7648,1.3324,28.2507],[103.7756,1.3264,36.3774],[103.7709,1.3213,13.1403],[103.7723,1.3121,15.4093],[103.7691,1.2939,21.7913],[103.7667,1.2922,9.8033],[103.7623,1.3013,8.732],[103.7584,1.2991,0.0],[103.7622,1.2958,7.3807],[103.7603,1.2939,0.0],[103.7606,1.2908,0.0],[103.7697,1.2844,0.6956],[103.7706,1.2822,0.0],[103.7698,1.2806,0.603],[103.7655,1.281,0.0],[103.7637,1.2837,0.0],[103.7603,1.2825,2.1273],[103.758,1.2848,3.6378],[103.7569,1.2844,3.6378],[103.7582,1.2829,5.0861],[103.7538,1.2845,3.8097],[103.7522,1.28,1.7569],[103.7722,1.2678,0.0],[103.7783,1.2789,7.8004],[103.7931,1.2697,0.7589],[103.7986,1.2681,0.7839],[103.8043,1.2634,3.5285],[103.8118,1.2665,12.3946],[103.82,1.2619,0.0],[103.8258,1.2628,0.0],[103.8319,1.2667,0.0],[103.8383,1.2672,3.4378],[103.8456,1.2603,0.0],[103.8481,1.2633,-0.1338],[103.8514,1.2601,0.0],[103.8527,1.2618,1.1483],[103.8531,1.2733,2.6469],[103.86,1.2688,4.061],[103.8714,1.2775,4.8781],[103.8675,1.2833,5.2442],[103.8616,1.287,2.0246],[103.8622,1.2892,10.1628],[103.8644,1.2897,0.0],[103.8633,1.2964,17.5444],[103.8644,1.2989,1.2754],[103.8692,1.3039,0.7167],[103.8717,1.3028,0.0],[103.8722,1.2994,0.0],[103.8666,1.2976,4.5767],[103.8664,1.2939,6.3266],[103.8697,1.2869,0.0],[103.875,1.2814,1.9033],[103.8933,1.2932,0.0],[103.9194,1.3022,8.017],[103.9183,1.3075,9.4251],[103.91,1.3055,9.5761],[103.9051,1.3176,7.4299],[103.9055,1.3285,6.0437],[103.8972,1.3368,9.3724]]]]}}