{"type":"Feature","properties":{"ISO3166-1-Alpha-3":"SGP","country":"Singapore","fill":"#F0F","id":"4871","name":"Central Singapore"},
"geometry":{"type": "Polygon","coordinates": [[[103.90944,1.41261,18.3392],[103.88147,1.42658,7.9695],[103.87432,1.41809,4.2059],[103.86266,1.4168,8.4399],[103.85037,1.41744,24.8412],[103.8413,1.4168,14.35],[103.83354,1.40903,0.0],[103.83095,1.40062,14.6084],[103.83742,1.3935,11.5569],[103.8413,1.38573,11.6852],[103.8426,1.37796,15.5082],[103.83483,1.37149,25.1616],[103.82447,1.36566,17.3218],[103.8193,1.3579,53.0544],[103.82383,1.35078,59.0464],[103.82383,1.34042,40.4955],[103.81477,1.33136,17.5462],[103.80635,1.32488,14.8061],[103.80765,1.31194,34.6799],[103.807,1.30352,33.9503],[103.80959,1.29382,14.617],[103.8193,1.28346,25.878],[103.82836,1.27828,23.8186],[103.84001,1.27375,9.2465],[103.84693,1.27192,5.9333],[103.85271,1.27729,6.4231],[103.88771,1.30126,8.8862],[103.8981,1.30524,3.9578],[103.89503,1.31064,5.3881],[103.88791,1.3223,7.5843],[103.88079,1.3333,7.3283],[103.87496,1.34301,31.1146],[103.87302,1.35336,20.2062],[103.87302,1.36307,27.3192],[103.8769,1.3727799999999999,19.827],[103.88402,1.3799,20.895],[103.8905,1.38314,14.5498],[103.89891,1.38638,12.9089],[103.90085,1.39673,21.7672],[103.90474,1.40644,16.0739],[103.90944,1.41261,18.3392]]]}}