{"type":"Feature","properties":{"ISO3166-1-Alpha-3":"SGP","country":"Singapore","fill":"#00F","id":"4872","name":"South West"},
"geometry":{"type": "Polygon","coordinates": [[[103.80635,1.32488,14.8061],[103.79794,1.33395,22.1217],[103.79017,1.34042,35.352],[103.7824,1.34301,41.7275],[103.78046,1.34754,48.7394],[103.78434,1.35142,68.3157],[103.78823,1.35595,52.117],[103.78758,1.36243,54.7538],[103.77787,1.37019,50.8155],[103.77075,1.37602,30.5572],[103.76363,1.38314,30.3563],[103.75845,1.39026,21.9109],[103.75845,1.40191,8.7187],[103.7591,1.41032,18.2156],[103.76104,1.42133,21.2335],[103.76222,1.43098,14.9281],[103.73976,1.42813,1.0],[103.71795,1.43098,6.4984],[103.70834,1.42939,17.5912],[103.69508,1.42133,18.2203],[103.68385,1.4099,44.5029],[103.67888,1.39924,21.0],[103.67457,1.38032,3.4913],[103.6447,1.33804,5.4606],[103.64039,1.32225,7.8937],[103.64763,1.30842,5.97],[103.66529,1.3041,9.387],[103.70875,1.30524,2.312],[103.73015,1.30292,6.9678],[103.75514,1.29711,2.6832],[103.77589,1.28758,9.0077],[103.78443,1.27387,-0.0443],[103.78956,1.26789,1.8565],[103.80161,1.2648,0.0],[103.82602,1.26431,6.5576],[103.83888,1.26626,0.2169],[103.84409,1.2685,6.5967],[103.84693,1.27192,5.9333],[103.84001,1.27375,9.2465],[103.82836,1.27828,23.8186],[103.8193,1.28346,25.878],[103.80959,1.29382,14.617],[103.807,1.30352,33.9503],[103.80765,1.31194,34.6799],[103.80635,1.32488,14.8061]]]}}