{"type":"Feature","properties":{"GID_1":"SGP.5_1","GID_0":"SGP","country":"Singapore","province":"West","VARNAME_1":"NA","NL_NAME_1":"NA","TYPE_1":"Region","ENGTYPE_1":"Region","CC_1":"NA","HASC_1":"NA","ISO_1":"NA","name":"West.province"},
"geometry":{"type": "MultiPolygon","coordinates": [[[[103.7346,1.175,3.6777],[103.7322,1.1761,0.0],[103.7281,1.1731,4.0646],[103.7311,1.1719,0.0],[103.7336,1.1669,0.0],[103.7389,1.1664,0.0],[103.7419,1.1742,0.0],[103.7346,1.175,3.6777]]],
[[[103.7644,1.2108,0.0],[103.7622,1.2111,0.5726],[103.7592,1.2172,0.0],[103.7583,1.2164,0.0],[103.7575,1.2047,0.0],[103.76,1.1983,0.6531],[103.7592,1.1958,0.0],[103.7639,1.1914,0.0],[103.7608,1.1969,0.0],[103.7661,1.2017,0.2885],[103.7736,1.1972,1.6656],[103.7742,1.1942,0.0],[103.7717,1.1911,0.0],[103.7653,1.1903,0.0],[103.7697,1.1886,0.0],[103.7756,1.1933,0.0],[103.7758,1.1967,0.0],[103.7814,1.2,0.0],[103.7816,1.2082,0.0],[103.7792,1.2119,0.0],[103.77,1.2086,3.4004],[103.7644,1.2108,0.0]]],
[[[103.7961,1.2089,0.0],[103.7944,1.2111,0.0],[103.7925,1.2108,0.0],[103.7912,1.2079,0.0],[103.7922,1.2042,0.0],[103.8012,1.2007,4.5282],[103.8022,1.2031,0.0],[103.7961,1.2089,0.0]]],
[[[103.7483,1.2233,0.0],[103.7497,1.2228,3.8802],[103.7503,1.2258,5.5484],[103.7475,1.2258,1.0935],[103.7483,1.2233,0.0]]],
[[[103.7287,1.191,0.0],[103.7233,1.1914,0.0],[103.7214,1.1872,0.0],[103.7164,1.1872,0.0],[103.7191,1.1803,0.0],[103.7275,1.1833,0.0],[103.7289,1.1867,0.0],[103.7317,1.1875,5.5879],[103.7287,1.191,0.0]]],
[[[103.7244,1.2106,0.0],[103.7225,1.2139,0.0],[103.7139,1.2114,6.6054],[103.707,1.2046,0.0],[103.7165,1.2022,5.1361],[103.7336,1.2032,1.2905],[103.732,1.2066,0.0],[103.7281,1.2081,0.0],[103.7302,1.2095,0.0],[103.7294,1.2114,1.1842],[103.7244,1.2106,0.0]]],
[[[103.7097,1.2925,0.0],[103.7069,1.2939,0.0],[103.7039,1.2897,1.8605],[103.7069,1.2806,0.0],[103.7118,1.2782,6.3963],[103.7104,1.2758,5.7042],[103.7069,1.2756,4.4368],[103.7022,1.2836,3.2222],[103.6989,1.2858,0.0],[103.6944,1.2819,0.0],[103.6958,1.2792,0.0],[103.6942,1.2719,5.7149],[103.6917,1.2731,5.2435],[103.6922,1.2778,0.0],[103.6858,1.2725,5.4624],[103.6831,1.2756,4.0898],[103.6908,1.2846,0.0],[103.6906,1.2873,5.0636],[103.6944,1.2931,0.0],[103.6933,1.2939,0.0],[103.6917,1.2908,0.0],[103.6878,1.2914,0.0],[103.6834,1.289,1.0024],[103.6561,1.2698,1.5628],[103.6667,1.2507,3.4675],[103.6642,1.2487,0.0],[103.6736,1.2426,5.2078],[103.676,1.2446,4.4586],[103.6793,1.2421,5.0175],[103.6769,1.2328,5.0147],[103.6785,1.2291,5.1403],[103.6907,1.2405,2.9227],[103.6858,1.2535,9.811],[103.6801,1.2446,5.1116],[103.6773,1.247,4.4241],[103.6834,1.258,4.5407],[103.6801,1.2621,5.73],[103.6855,1.267,0.0],[103.6897,1.2633,0.6879],[103.6914,1.2653,4.5649],[103.6928,1.2647,12.8563],[103.6928,1.2575,0.0],[103.6953,1.2519,0.0],[103.6989,1.2508,3.4002],[103.7036,1.2517,0.0],[103.7092,1.2558,2.5444],[103.7144,1.2544,0.0],[103.7131,1.2594,4.385],[103.7078,1.2611,4.5157],[103.705,1.2658,5.166],[103.7067,1.2686,4.7753],[103.7092,1.2692,4.4214],[103.7123,1.2649,0.0],[103.7218,1.2605,1.787],[103.7263,1.2652,0.0],[103.7266,1.2678,2.8177],[103.7251,1.2689,0.0],[103.7261,1.271,1.1223],[103.7356,1.2681,0.0],[103.7397,1.2725,5.5222],[103.7397,1.2744,3.1586],[103.7352,1.2787,2.8419],[103.7331,1.2786,6.7826],[103.7281,1.2828,0.0],[103.7233,1.2903,6.4862],[103.7144,1.2903,7.7305],[103.7119,1.2928,1.6415],[103.7111,1.2914,3.5626],[103.7097,1.2925,0.0]]],
[[[103.7901,1.3487,52.2817],[103.7917,1.3493,53.1184],[103.7905,1.3511,49.6422],[103.7837,1.3565,56.7745],[103.7806,1.3611,55.3592],[103.7744,1.3903,32.0445],[103.765,1.3908,36.4854],[103.7533,1.389,13.082],[103.7526,1.4035,8.2515],[103.7426,1.4072,13.3855],[103.74,1.4204,1.0],[103.7393,1.418,2.886],[103.7297,1.4097,1.0],[103.7355,1.3977,4.2269],[103.735,1.3917,4.3865],[103.7311,1.4009,4.7072],[103.7284,1.4033,6.0733],[103.7262,1.3956,6.1861],[103.7201,1.3915,1.9992],[103.7198,1.3928,6.2733],[103.7244,1.3965,1.0],[103.7237,1.399,1.0],[103.7263,1.4067,1.0],[103.7254,1.4094,4.3068],[103.7227,1.4105,1.0],[103.717,1.4092,1.0],[103.7144,1.4128,1.6802],[103.7117,1.4099,8.2102],[103.7097,1.4117,1.9542],[103.7042,1.4108,4.5864],[103.705,1.4125,5.1141],[103.701,1.4168,11.9398],[103.7016,1.4181,19.7409],[103.6987,1.4187,16.3039],[103.7001,1.4232,24.6804],[103.697,1.4243,22.9841],[103.695,1.4315,20.896],[103.693,1.4337,14.8501],[103.6778,1.4289,0.0],[103.674,1.4244,2.9624],[103.6699,1.411,0.0],[103.6655,1.4092,2.7708],[103.6626,1.4051,17.4172],[103.6625,1.4006,10.7927],[103.6606,1.3981,1.7528],[103.6622,1.3964,24.1934],[103.6622,1.3925,5.2801],[103.6569,1.3828,1.7879],[103.6572,1.3817,2.5226],[103.6594,1.3833,3.2009],[103.6625,1.3817,3.0],[103.6722,1.3831,4.7442],[103.6739,1.38,3.0],[103.6771,1.3793,4.3049],[103.6734,1.3786,4.8295],[103.6714,1.3753,3.0],[103.6742,1.3706,4.1759],[103.6739,1.3675,3.0],[103.6708,1.3672,9.8651],[103.6689,1.3728,3.7444],[103.6552,1.3727,3.0],[103.6524,1.3677,3.8514],[103.6544,1.3619,4.4864],[103.6514,1.3627,3.0],[103.6453,1.3611,0.5276],[103.6445,1.3581,8.9141],[103.6412,1.3562,1.7175],[103.645,1.3504,3.0],[103.6525,1.344,4.6623],[103.6539,1.3383,3.0],[103.6563,1.3384,7.4956],[103.6551,1.3362,5.0764],[103.6514,1.3361,7.5085],[103.6499,1.3388,3.0],[103.6503,1.3425,4.0967],[103.6451,1.3439,3.9241],[103.6383,1.3497,3.0],[103.6375,1.3522,0.8101],[103.6331,1.3508,0.0],[103.6344,1.3461,0.0],[103.6328,1.3425,0.0],[103.6341,1.3394,0.4979],[103.6205,1.3015,2.8035],[103.6167,1.2956,0.0],[103.6169,1.2919,0.0],[103.622,1.2873,4.7118],[103.615,1.2678,4.6861],[103.619,1.2623,5.2588],[103.6185,1.2596,2.7023],[103.6111,1.251,0.0],[103.6129,1.2383,2.6885],[103.6159,1.2363,0.0],[103.6176,1.2292,0.0],[103.6108,1.2271,0.0],[103.6091,1.2191,2.0617],[103.6221,1.2236,0.0],[103.6182,1.2366,1.1994],[103.6221,1.2377,0.0],[103.6156,1.2531,2.554],[103.6212,1.2575,0.8358],[103.6215,1.262,0.9331],[103.6386,1.2702,1.9627],[103.6424,1.286,4.0167],[103.6477,1.2869,6.1375],[103.6473,1.291,1.1099],[103.6338,1.298,5.0514],[103.6372,1.3064,6.2314],[103.6381,1.3069,2.1655],[103.6389,1.3045,4.9203],[103.6429,1.3055,0.0],[103.6447,1.3128,6.3],[103.6469,1.3128,0.0],[103.6483,1.3108,3.6224],[103.6442,1.3069,0.0],[103.6556,1.2953,0.0],[103.6581,1.2961,1.2156],[103.6581,1.2931,0.0],[103.6592,1.2936,0.0],[103.6606,1.2914,0.0],[103.6631,1.2919,0.0],[103.6672,1.2878,0.0],[103.6711,1.2922,4.9909],[103.6756,1.2931,0.0],[103.6753,1.2953,0.0],[103.6697,1.3015,5.3227],[103.6711,1.3058,3.4327],[103.6788,1.2967,0.0],[103.6822,1.2983,3.6731],[103.6818,1.3044,0.0],[103.6833,1.2992,1.8482],[103.6853,1.2989,3.3203],[103.6942,1.2997,0.0],[103.6947,1.3039,5.1778],[103.6958,1.2986,0.0],[103.6992,1.2997,0.0],[103.7006,1.3039,2.4586],[103.7033,1.3011,0.0],[103.7072,1.3008,0.0],[103.7094,1.3022,0.0],[103.7092,1.305,2.312],[103.7108,1.3067,0.0],[103.7136,1.3003,0.9999],[103.7186,1.2986,0.0],[103.72,1.2997,0.4595],[103.7208,1.3014,2.8447],[103.7169,1.3053,0.7726],[103.7178,1.3061,1.8387],[103.7264,1.3009,1.9691],[103.7269,1.3025,0.5962],[103.7239,1.3069,0.0],[103.7281,1.3167,0.0],[103.7325,1.3225,2.9231],[103.7322,1.3189,0.7352],[103.7272,1.3108,0.0],[103.7272,1.3072,0.0],[103.7306,1.3005,1.1275],[103.7414,1.2989,5.1199],[103.7522,1.295,0.0],[103.7561,1.2956,0.0],[103.7581,1.2992,0.0],[103.7623,1.3013,8.732],[103.7674,1.2917,7.318],[103.7695,1.2947,21.7913],[103.7722,1.3114,20.4255],[103.7709,1.3213,13.1403],[103.7756,1.3264,36.3774],[103.7648,1.3324,28.2507],[103.7656,1.3358,33.8366],[103.7642,1.3392,41.5825],[103.7651,1.3421,48.3089],[103.7671,1.3428,43.6444],[103.7632,1.3467,43.6891],[103.7704,1.349,35.5423],[103.7778,1.3419,30.9023],[103.7874,1.3447,40.7861],[103.7883,1.3457,40.8725],[103.7862,1.3486,55.0616],[103.7901,1.3487,52.2817]]],
[[[103.7525,1.2242,0.0],[103.7531,1.2261,0.0],[103.7514,1.2264,3.0737],[103.7514,1.2258,3.0737],[103.7525,1.2242,0.0]]],
[[[103.7642,1.2406,0.0],[103.7611,1.2411,0.0],[103.7589,1.2389,2.6649],[103.7603,1.2358,3.1804],[103.7594,1.2339,2.9607],[103.7567,1.2372,0.0],[103.7542,1.2361,0.0],[103.7539,1.2322,5.519],[103.7561,1.2292,15.0387],[103.7636,1.225,0.0],[103.7686,1.2259,2.4874],[103.7703,1.2289,1.7235],[103.7739,1.2244,0.5945],[103.7786,1.2233,0.0],[103.7789,1.2272,0.0],[103.7694,1.2372,0.0],[103.7642,1.2406,0.0]]],
[[[103.7508,1.2357,0.0],[103.7503,1.2408,0.0],[103.7481,1.2394,0.0],[103.7431,1.24,0.0],[103.7417,1.2383,0.0],[103.7431,1.2367,3.736],[103.7394,1.2336,0.0],[103.7428,1.2311,2.1598],[103.7472,1.2314,2.4094],[103.7508,1.2333,8.1224],[103.7508,1.2357,0.0]]],
[[[103.7271,1.4048,1.0],[103.7282,1.4044,1.0],[103.7281,1.406,1.0],[103.7277,1.4061,1.0],[103.7271,1.4048,1.0]]],
[[[103.6504,1.3702,3.0],[103.6518,1.3696,3.0],[103.6542,1.3716,5.7138],[103.654,1.3748,3.0],[103.6497,1.3729,4.4639],[103.6504,1.3702,3.0]]],
[[[103.6552,1.3789,0.5971],[103.6546,1.3777,2.2815],[103.6565,1.3808,2.5226],[103.6559,1.3807,2.5226],[103.6552,1.3789,0.5971]]],
[[[103.7103,1.4125,3.5948],[103.7107,1.4129,3.5948],[103.7095,1.4125,3.5948],[103.7103,1.4125,3.5948]]],
[[[103.6844,1.4339,0.0],[103.6851,1.4337,0.0],[103.6859,1.435,5.3914],[103.6842,1.4346,0.0],[103.6844,1.4339,0.0]]]]}}