{"type":"Feature","properties":{"GID_1":"SGP.2_1","GID_0":"SGP","country":"Singapore","province":"East","VARNAME_1":"NA","NL_NAME_1":"NA","TYPE_1":"Region","ENGTYPE_1":"Region","CC_1":"NA","HASC_1":"NA","ISO_1":"NA","name":"East.province"},
"geometry":{"type": "MultiPolygon","coordinates": [[[[104.0242,1.3656,0.0],[104.0203,1.3628,3.872],[104.0167,1.355,4.9522],[104.0142,1.3589,4.9094],[104.0125,1.3569,10.582],[104.0106,1.3578,10.3968],[104.0136,1.3653,5.0668],[104.0094,1.3606,7.5216],[104.0086,1.3575,8.2686],[104.0106,1.3556,8.2702],[104.0028,1.3392,7.2536],[104.0042,1.3378,11.7154],[104.0022,1.3336,8.9073],[104.0036,1.3306,4.4562],[104.0081,1.3375,5.5911],[104.0081,1.3403,4.4378],[104.0106,1.3422,3.9281],[104.0147,1.3536,5.6112],[104.0158,1.3525,5.6112],[104.0139,1.3447,9.1708],[104.0183,1.3478,4.4825],[104.0253,1.345,4.2541],[104.0259,1.3481,7.892],[104.0288,1.3505,6.9505],[104.0291,1.3557,12.0831],[104.0267,1.3586,10.5082],[104.03,1.3572,8.4504],[104.0317,1.3586,0.8607],[104.0333,1.3536,0.0],[104.0364,1.3533,0.0],[104.0386,1.3569,0.0],[104.0242,1.3656,0.0]]],
[[[103.9194,1.3024,8.017],[103.9339,1.305,0.0],[103.9474,1.3104,0.0],[103.9558,1.311,0.0],[103.9614,1.3139,3.4231],[103.9734,1.3164,3.5244],[103.9775,1.3152,0.0],[103.9833,1.3167,0.0],[103.9881,1.3114,0.0],[103.9908,1.3139,11.6932],[104.0006,1.31,0.0],[104.0117,1.3156,7.5834],[104.0217,1.315,0.0],[104.0225,1.3114,0.0],[104.0264,1.3092,0.0],[104.0275,1.3111,0.0],[104.0239,1.3128,0.0],[104.0228,1.3186,0.0],[104.0269,1.3197,0.0],[104.0283,1.3181,3.8674],[104.0269,1.3167,0.0],[104.0311,1.3131,0.0],[104.0322,1.3097,0.0],[104.0336,1.31,0.0],[104.0328,1.3156,0.0],[104.035,1.3192,0.0],[104.0328,1.3211,0.0],[104.0322,1.3253,3.1258],[104.0139,1.3242,5.0171],[103.9981,1.3211,12.4579],[103.9944,1.3233,26.3086],[103.9961,1.3258,25.5638],[103.9908,1.329,25.5916],[103.9987,1.3502,7.4278],[104.0064,1.3653,7.4581],[104.0064,1.3711,0.0],[104.0083,1.3731,1.2381],[104.0045,1.3772,7.9475],[103.9997,1.3911,0.0],[103.9958,1.39,1.7361],[103.9878,1.3928,1.2822],[103.9758,1.3928,0.0],[103.9698,1.3856,0.0],[103.9656,1.3856,0.0],[103.9653,1.3828,0.0],[103.9674,1.3816,2.8565],[103.9602,1.3814,3.8881],[103.9508,1.3825,1.703],[103.9459,1.3847,1.1858],[103.9377,1.3904,3.7239],[103.9349,1.3979,0.5562],[103.9311,1.3997,2.836],[103.9251,1.3978,1.0146],[103.9169,1.391,7.6711],[103.9143,1.3859,4.4046],[103.9175,1.3824,8.7989],[103.91,1.3759,11.9786],[103.902,1.3572,6.0112],[103.8985,1.3562,9.5941],[103.8972,1.3536,14.8371],[103.8957,1.354,13.1884],[103.8935,1.3488,20.5117],[103.8962,1.3468,18.2211],[103.8984,1.3474,16.9971],[103.899,1.3428,10.5771],[103.8962,1.3378,9.5119],[103.9055,1.3285,6.0437],[103.9051,1.3176,7.4299],[103.91,1.3055,9.5761],[103.9183,1.3075,9.4251],[103.9194,1.3024,8.017]]]]}}