{"type":"Feature","properties":{"ISO3166-1-Alpha-3":"SGP","country":"Singapore","fill":"#00F","id":"4875","name":"South East"},
"geometry":{"type": "Polygon","coordinates": [[[103.8981,1.30524,3.9578],[103.90724,1.30874,7.9473],[103.9319,1.31147,8.7709],[103.95436,1.3181,7.5211],[103.97486,1.33446,8.4244],[103.99187,1.35493,3.5672],[104.00343,1.37417,8.0039],[103.99952,1.38032,5.6786],[103.98569,1.38544,18.3092],[103.96581,1.38996,0.0],[103.96234,1.38314,0.0],[103.95458,1.37667,12.288],[103.94552,1.3727799999999999,12.1078],[103.94552,1.36502,14.7543],[103.94228,1.35401,9.963],[103.93516,1.35401,15.2999],[103.92998,1.35854,14.6744],[103.91704,1.36437,40.0288],[103.90603,1.36825,10.1419],[103.89762,1.37472,10.0498],[103.89891,1.38638,12.9089],[103.8905,1.38314,14.5498],[103.88402,1.3799,20.895],[103.8769,1.3727799999999999,19.827],[103.87302,1.36307,27.3192],[103.87302,1.35336,20.2062],[103.87496,1.34301,31.1146],[103.88079,1.3333,7.3283],[103.88791,1.3223,7.5843],[103.89503,1.31064,5.3881],[103.8981,1.30524,3.9578]]]}}