{"type":"Feature","properties":{"GID_1":"SGP.4_1","GID_0":"SGP","country":"Singapore","province":"North-East","VARNAME_1":"NA","NL_NAME_1":"NA","TYPE_1":"Region","ENGTYPE_1":"Region","CC_1":"NA","HASC_1":"NA","ISO_1":"NA","name":"North-East.province"},
"geometry":{"type": "MultiPolygon","coordinates": [[[[103.8959,1.3374,9.5119],[103.899,1.3451,15.1441],[103.8984,1.3474,16.9971],[103.8962,1.3468,18.2211],[103.8935,1.3488,20.5117],[103.8957,1.354,13.1884],[103.8972,1.3536,14.8371],[103.8985,1.3562,9.5941],[103.902,1.3572,6.0112],[103.91,1.3759,11.9786],[103.9175,1.3824,8.7989],[103.9143,1.3859,4.4046],[103.9214,1.4008,9.7092],[103.9131,1.4107,6.432],[103.9129,1.4215,2.5607],[103.9083,1.4214,0.0],[103.8985,1.4174,1.3658],[103.8944,1.4078,2.2081],[103.8956,1.4064,6.8151],[103.8869,1.4019,2.1657],[103.8869,1.4042,6.9449],[103.8941,1.4101,1.1977],[103.8941,1.4137,5.2474],[103.8829,1.417,10.6323],[103.881,1.416,0.0],[103.8807,1.4124,4.9847],[103.8802,1.4159,0.0],[103.8758,1.4187,4.2059],[103.8719,1.4239,5.3392],[103.8658,1.4247,2.1892],[103.863,1.423,0.0],[103.8611,1.4182,0.0],[103.8613,1.4105,8.0542],[103.8551,1.4049,14.6435],[103.8556,1.3999,18.2214],[103.8524,1.3971,25.6525],[103.8274,1.3929,11.5252],[103.8188,1.3943,21.7818],[103.8184,1.3886,44.2351],[103.8167,1.3869,60.3754],[103.8194,1.3854,65.3654],[103.8178,1.3802,48.7868],[103.8273,1.3791,44.1453],[103.8263,1.3735,41.4385],[103.8278,1.3723,33.1093],[103.8283,1.3675,18.4208],[103.8465,1.3639,20.6631],[103.8519,1.3607,16.8213],[103.8569,1.3555,20.7435],[103.8604,1.3434,8.0449],[103.8651,1.3443,11.1019],[103.8696,1.3427,25.5561],[103.8773,1.3443,12.9518],[103.8851,1.3409,12.8379],[103.8889,1.3336,4.3345],[103.8959,1.3374,9.5119]]],
[[[103.9216,1.4136,0.0],[103.9157,1.4159,6.1224],[103.9235,1.4075,19.0188],[103.924,1.405,8.7032],[103.9263,1.4055,5.5723],[103.9299,1.4024,6.2193],[103.9298,1.405,2.861],[103.9216,1.4136,0.0]]],
[[[103.89,1.4247,2.5582],[103.8885,1.4249,2.5582],[103.8839,1.4181,0.6771],[103.8947,1.4144,1.9368],[103.8981,1.4186,1.3658],[103.89,1.4247,2.5582]]],
[[[103.8816,1.4177,2.7431],[103.888,1.4258,1.1925],[103.879,1.4316,3.8516],[103.8743,1.4316,4.5717],[103.8706,1.429,0.9653],[103.87,1.4255,6.3419],[103.879,1.4183,0.0],[103.8816,1.4177,2.7431]]],
[[[103.9531,1.3997,0.7094],[103.9542,1.3992,0.0],[103.9478,1.4072,0.0],[103.9453,1.4078,0.3808],[103.9472,1.405,0.0],[103.9531,1.3997,0.7094]]],
[[[104.0592,1.4315,2.2492],[104.055,1.4318,13.042],[104.0522,1.4297,0.0],[104.0425,1.4302,5.8254],[104.0417,1.4277,17.4939],[104.0377,1.4252,10.1974],[104.0303,1.426,0.0],[104.0286,1.4249,7.8462],[104.0312,1.4157,28.8583],[104.0278,1.4156,0.0],[104.0279,1.4128,2.1634],[104.0311,1.4134,30.4151],[104.0283,1.4071,6.0447],[104.0366,1.4013,19.8279],[104.038,1.396,0.0],[104.0414,1.3955,28.817],[104.0406,1.3932,8.1141],[104.0503,1.3807,8.8921],[104.0556,1.3818,3.1636],[104.0574,1.3857,6.1641],[104.0702,1.3913,7.7167],[104.0761,1.3899,4.5785],[104.0794,1.3913,4.7547],[104.083,1.4016,9.4613],[104.083,1.4077,4.8932],[104.0858,1.4101,0.0],[104.0836,1.4135,8.2813],[104.0833,1.4148,13.3916],[104.0851,1.4152,0.0],[104.0836,1.4193,0.0],[104.0796,1.4239,0.0],[104.0718,1.43,0.0],[104.0592,1.4315,2.2492]]],
[[[103.9381,1.4265,11.0328],[103.9372,1.4282,0.0],[103.9333,1.4279,0.0],[103.9258,1.4226,15.3886],[103.9303,1.4174,18.5802],[103.9339,1.4182,4.3288],[103.9353,1.4151,0.0],[103.9378,1.4151,0.0],[103.9411,1.4179,20.8135],[103.9392,1.4146,0.0],[103.9483,1.4099,5.2652],[103.9494,1.4071,1.3878],[103.9508,1.4104,9.5222],[103.9522,1.4104,6.8953],[103.9522,1.4068,5.9299],[103.9578,1.3999,0.0],[103.9711,1.4021,7.2034],[103.9739,1.404,10.4212],[103.9739,1.4063,3.8683],[103.9781,1.4079,3.9216],[103.9842,1.4068,0.0],[103.9919,1.4082,5.0092],[103.9903,1.4113,4.6164],[103.9919,1.4154,0.0],[103.9897,1.4182,0.0],[103.9779,1.4178,9.7538],[103.9694,1.4196,3.2324],[103.9548,1.4175,8.0975],[103.9528,1.4193,1.8495],[103.9543,1.4203,0.0],[103.9381,1.4265,11.0328]]],
[[[104.0219,1.4211,8.4045],[104.0186,1.4231,4.253],[104.0167,1.4158,2.6515],[104.0211,1.4122,2.5144],[104.025,1.4122,2.616],[104.0269,1.4142,4.574],[104.0258,1.4189,2.4793],[104.0219,1.4211,8.4045]]]]}}