{"type":"Feature","properties":{"ISO3166-1-Alpha-3":"SGP","country":"Singapore","fill":"#FF0","id":"4874","name":"North East"},
"geometry":{"type": "Polygon","coordinates": [[[103.96079,1.3911,0.0],[103.93247,1.40111,0.0],[103.90944,1.41261,18.3392],[103.90474,1.40644,16.0739],[103.90085,1.39673,21.7672],[103.89891,1.38638,12.9089],[103.89762,1.37472,10.0498],[103.90603,1.36825,10.1419],[103.91704,1.36437,40.0288],[103.92998,1.35854,14.6744],[103.93516,1.35401,15.2999],[103.94228,1.35401,9.963],[103.94552,1.36502,14.7543],[103.94552,1.3727799999999999,12.1078],[103.95458,1.37667,12.288],[103.96234,1.38314,0.0],[103.96581,1.38996,0.0],[103.96079,1.3911,0.0]]]}}