{"type":"Feature","properties":{"GID_1":"SGP.3_1","GID_0":"SGP","country":"Singapore","province":"North","VARNAME_1":"NA","NL_NAME_1":"NA","TYPE_1":"Region","ENGTYPE_1":"Region","CC_1":"NA","HASC_1":"NA","ISO_1":"NA","name":"North.province"},
"geometry":{"type": "MultiPolygon","coordinates": [[[[103.8282,1.3665,17.574],[103.8279,1.3721,33.1093],[103.8263,1.3735,41.4385],[103.8273,1.3791,44.1453],[103.8178,1.3803,48.7868],[103.8194,1.3854,65.3654],[103.8167,1.3869,60.3754],[103.8184,1.3886,44.2351],[103.8188,1.3943,21.7818],[103.8274,1.3929,11.5252],[103.8427,1.3964,18.8493],[103.8519,1.3969,23.3408],[103.8555,1.3997,18.2214],[103.8551,1.4049,14.6435],[103.8616,1.4113,7.7719],[103.8611,1.4182,0.0],[103.8577,1.4134,6.2095],[103.8454,1.4036,4.4591],[103.8444,1.401,0.0],[103.8419,1.4016,8.7483],[103.8392,1.3979,8.0768],[103.8349,1.3987,3.9143],[103.835,1.4065,6.0566],[103.8314,1.4058,2.924],[103.8289,1.4031,24.0764],[103.8281,1.404,9.03],[103.8297,1.4083,0.0],[103.8328,1.4102,0.0],[103.8436,1.4075,3.2714],[103.8478,1.4097,0.0],[103.8625,1.433,5.2275],[103.8622,1.4358,3.0436],[103.8574,1.4415,0.0],[103.8528,1.4392,7.4829],[103.8563,1.4436,0.0],[103.8544,1.4486,15.6751],[103.8461,1.4487,7.0973],[103.8511,1.4509,5.6295],[103.8505,1.4556,2.2138],[103.8306,1.4675,0.0],[103.8311,1.4694,0.0],[103.8289,1.4714,0.0],[103.8249,1.466,0.0],[103.8221,1.4666,1.4126],[103.8189,1.4636,4.3537],[103.8191,1.4659,5.0181],[103.8225,1.4682,0.0],[103.8203,1.4701,7.2051],[103.8061,1.4706,0.0],[103.7961,1.4667,0.9048],[103.7828,1.4556,0.0],[103.7695,1.4492,0.0],[103.7617,1.4387,4.4929],[103.7545,1.4388,0.0],[103.7503,1.4372,1.045],[103.7446,1.4404,1.9807],[103.7428,1.4397,4.0934],[103.7466,1.4289,5.3447],[103.74,1.4204,1.0],[103.7421,1.4139,12.7581],[103.7419,1.4083,11.6609],[103.7441,1.4061,5.8517],[103.7525,1.4038,6.8352],[103.7533,1.389,13.082],[103.765,1.3908,36.4854],[103.7744,1.3903,32.0445],[103.7806,1.3611,55.3592],[103.7917,1.3493,53.1184],[103.7964,1.3489,61.4861],[103.8042,1.3414,28.4325],[103.8099,1.3417,35.378],[103.8181,1.3359,32.585],[103.8204,1.3395,32.217],[103.8232,1.3407,40.4955],[103.8343,1.3408,16.0875],[103.8371,1.3435,21.7717],[103.8368,1.3464,26.3061],[103.8338,1.3496,26.8734],[103.8267,1.3542,28.8428],[103.8235,1.3523,62.5894],[103.8185,1.3549,66.5373],[103.8207,1.3612,32.5474],[103.8243,1.3618,34.5911],[103.8251,1.3635,33.5785],[103.8271,1.3627,31.4931],[103.8282,1.3665,17.574]]],
[[[103.7392,1.426,1.0],[103.7379,1.427,1.0],[103.7375,1.4233,1.0],[103.7398,1.4252,1.0],[103.7392,1.426,1.0]]],
[[[103.7098,1.4126,3.5948],[103.715,1.4147,11.4755],[103.7192,1.4122,5.5792],[103.7232,1.4123,6.0373],[103.7296,1.4151,1.7042],[103.7355,1.4208,2.0501],[103.7382,1.4296,1.0],[103.7363,1.4309,1.0],[103.7385,1.4394,0.0],[103.7306,1.4497,0.0],[103.7253,1.4514,4.2489],[103.714,1.45,3.4749],[103.7072,1.4465,6.8129],[103.696,1.4354,10.371],[103.6916,1.4336,17.8492],[103.695,1.4315,20.896],[103.6971,1.4242,22.9841],[103.7001,1.4232,24.6804],[103.6987,1.4187,16.3039],[103.7016,1.4181,19.7409],[103.701,1.4168,11.9398],[103.705,1.4125,5.1141],[103.7098,1.4126,3.5948]]],
[[[103.8644,1.4378,1.1927],[103.8661,1.4381,0.0],[103.8656,1.4417,0.0441],[103.8594,1.4497,1.0341],[103.8569,1.4503,0.0],[103.86,1.4461,8.4843],[103.8598,1.4436,5.844],[103.8644,1.4378,1.1927]]]]}}