{"type":"Feature","properties":{"ISO3166-1-Alpha-3":"SGP","country":"Singapore","fill":"#FF0","id":"4873","name":"North West"},
"geometry":{"type": "Polygon","coordinates": [[[103.88147,1.42658,7.9695],[103.85719,1.43871,17.0777],[103.83155,1.44709,7.865],[103.80494,1.44864,12.5448],[103.79005,1.44428,29.1732],[103.76222,1.43098,14.9281],[103.76104,1.42133,21.2335],[103.7591,1.41032,18.2156],[103.75845,1.40191,8.7187],[103.75845,1.39026,21.9109],[103.76363,1.38314,30.3563],[103.77075,1.37602,30.5572],[103.77787,1.37019,50.8155],[103.78758,1.36243,54.7538],[103.78823,1.35595,52.117],[103.78434,1.35142,68.3157],[103.78046,1.34754,48.7394],[103.7824,1.34301,41.7275],[103.79017,1.34042,35.352],[103.79794,1.33395,22.1217],[103.80635,1.32488,14.8061],[103.81477,1.33136,17.5462],[103.82383,1.34042,40.4955],[103.82383,1.35078,59.0464],[103.8193,1.3579,53.0544],[103.82447,1.36566,17.3218],[103.83483,1.37149,25.1616],[103.8426,1.37796,15.5082],[103.8413,1.38573,11.6852],[103.83742,1.3935,11.5569],[103.83095,1.40062,14.6084],[103.83354,1.40903,0.0],[103.8413,1.4168,14.35],[103.85037,1.41744,24.8412],[103.86266,1.4168,8.4399],[103.87432,1.41809,4.2059],[103.88147,1.42658,7.9695]]]}}